NORAD_CAT_ID,OBJECT_NAME,OBJECT_TYPE,EPOCH,MEAN_MOTION,ECCENTRICITY,INCLINATION,RA_OF_ASC_NODE,ARG_OF_PERICENTER,MEAN_ANOMALY,BSTAR,MEAN_MOTION_DOT,MEAN_MOTION_DDOT,TLE_LINE0,TLE_LINE1,TLE_LINE2,SEMIMAJOR_AXIS,PERIOD,APOGEE,PERIGEE,DECAYED
52347.0,STARLINK-3826,PAYLOAD,2022-08-20 08:00:01,15.08835238,0.0001665,53.2137,263.1745,54.4849,267.8593,-0.0011172,-0.00018022,0.0,0 STARLINK-3826,1 52347U 22045S   22232.33334491 -.00018022  00000-0 -11172-2 0  9994,2 52347  53.2137 263.1745 0001665  54.4849 267.8593 15.08835238 19917,6917.895,95.438,540.9119999999998,538.6080000000002,0.0
52347.0,STARLINK-3826,PAYLOAD,2022-08-20 14:00:01,15.08818355,0.0001699,53.2136,262.0526,50.603,190.4302,0.0018749,0.00029659,0.0,0 STARLINK-3826,1 52347U 22045S   22232.58334491  .00029659  00000-0  18749-2 0  9994,2 52347  53.2136 262.0526 0001699  50.6030 190.4302 15.08818355  1302,6917.946999999999,95.439,540.987,538.636,0.0
52347.0,STARLINK-3826,PAYLOAD,2022-08-20 22:00:00,15.08812382,0.0001575999999999,53.2137,260.5544,56.732,195.8911,0.0024411,0.00038747,0.0,0 STARLINK-3826,1 52347U 22045S   22232.91667824  .00038747  00000-0  24411-2 0  9991,2 52347  53.2137 260.5544 0001576  56.7320 195.8911 15.08812382  1308,6917.965,95.439,540.92,538.74,0.0
52347.0,STARLINK-3826,PAYLOAD,2022-08-21 06:00:00,15.0885651,0.0001662,53.2137,259.059,55.4275,208.7697,-0.0030214,-0.00048075,0.0,0 STARLINK-3826,1 52347U 22045S   22233.25001157 -.00048075  00000-0 -30214-2 0  9995,2 52347  53.2137 259.0590 0001662  55.4275 208.7697 15.08856510 20052,6917.83,95.437,540.845,538.545,0.0
52347.0,STARLINK-3826,PAYLOAD,2022-08-21 14:00:01,15.08813301,0.0001704,53.2135,257.5633,48.0134,227.782,0.00033234,5.001e-05,0.0,0 STARLINK-3826,1 52347U 22045S   22233.58334491  .00005001  00000-0  33234-3 0  9997,2 52347  53.2135 257.5633 0001704  48.0134 227.7820 15.08813301  1307,6917.962,95.439,541.006,538.648,0.0
52347.0,STARLINK-3826,PAYLOAD,2022-08-21 22:00:00,15.08790204,0.0001563,53.2137,256.0651,53.8378,233.5304,0.0027375,0.00043489,0.0,0 STARLINK-3826,1 52347U 22045S   22233.91667824  .00043489  00000-0  27375-2 0  9993,2 52347  53.2137 256.0651 0001563  53.8378 233.5304 15.08790204 20152,6918.033,95.441,540.979,538.816,0.0
52347.0,STARLINK-3826,PAYLOAD,2022-08-22 12:00:00,15.08794722,0.0001802,53.2138,253.4485,47.5527,170.0534,0.0030524,0.00048566,0.0,0 STARLINK-3826,1 52347U 22045S   22234.50001157  .00048566  00000-0  30524-2 0  9991,2 52347  53.2138 253.4485 0001802  47.5527 170.0534 15.08794722 20240,6918.019,95.44,541.13,538.637,0.0
52347.0,STARLINK-3826,PAYLOAD,2022-08-22 22:00:00,15.08797092,0.0001643,53.2138,251.576,54.0175,268.0524,0.0029352,0.00046681,0.0,0 STARLINK-3826,1 52347U 22045S   22234.91667824  .00046681  00000-0  29352-2 0  9998,2 52347  53.2138 251.5760 0001643  54.0175 268.0524 15.08797092 20307,6918.012,95.44,541.013,538.74,0.0
52347.0,STARLINK-3826,PAYLOAD,2022-08-23 14:00:01,15.08829008,0.0001841,53.2136,248.5847,47.4829,297.7252,-8.2427e-05,-1.599e-05,0.0,0 STARLINK-3826,1 52347U 22045S   22235.58334491 -.00001599  00000-0 -82427-4 0  9998,2 52347  53.2136 248.5847 0001841  47.4829 297.7252 15.08829008  1308,6917.9140000000025,95.438,541.053,538.505,0.0
52347.0,STARLINK-3826,PAYLOAD,2022-08-23 22:00:01,15.08803048,0.0001695,53.2138,247.0866,54.7164,302.144,0.0029616,0.00047114,0.0,0 STARLINK-3826,1 52347U 22045S   22235.91668981  .00047114  00000-0  29616-2 0  9999,2 52347  53.2138 247.0866 0001695  54.7164 302.1440 15.08803048  1301,6917.993,95.44,541.031,538.686,0.0
52347.0,STARLINK-3826,PAYLOAD,2022-08-24 14:00:01,15.08837894,0.0001876999999999,53.2136,244.0953,48.2146,331.7358,-0.00064066,-0.00010469,0.0,0 STARLINK-3826,1 52347U 22045S   22236.58334491 -.00010469  00000-0 -64066-3 0  9993,2 52347  53.2136 244.0953 0001877  48.2146 331.7358 15.08837894  1305,6917.887,95.438,541.05,538.453,0.0
52347.0,STARLINK-3826,PAYLOAD,2022-08-24 16:00:00,15.08848069,0.0001838,53.2137,243.7207,50.6103,62.2347,-0.002134,-0.00034098,0.0,0 STARLINK-3826,1 52347U 22045S   22236.66667824 -.00034098  00000-0 -21340-2 0  9992,2 52347  53.2137 243.7207 0001838  50.6103  62.2347 15.08848069 20571,6917.856,95.437,540.992,538.4490000000002,0.0
52347.0,STARLINK-3826,PAYLOAD,2022-08-24 22:00:00,15.08809473,0.0001713,53.2137,242.5973,55.6295,335.9176,0.0028944,0.00046039,0.0,0 STARLINK-3826,1 52347U 22045S   22236.91667824  .00046039  00000-0  28944-2 0  9993,2 52347  53.2137 242.5973 0001713  55.6295 335.9176 15.08809473  1303,6917.974,95.439,541.024,538.654,0.0
52347.0,STARLINK-3826,PAYLOAD,2022-08-25 06:00:02,15.08846472,0.0001869,53.2137,241.1023,52.1886,351.0009,-0.0016611,-0.00026632,0.0,0 STARLINK-3826,1 52347U 22045S   22237.25002315 -.00026632  00000-0 -16611-2 0  9996,2 52347  53.2137 241.1023 0001869  52.1886 351.0009 15.08846472 20668,6917.861,95.437,541.019,538.433,0.0
52347.0,STARLINK-3826,PAYLOAD,2022-08-25 14:00:01,15.08845214,0.0001888,53.2133,239.6058,49.575,5.1386,-0.0010445,-0.00016876,0.0,0 STARLINK-3826,1 52347U 22045S   22237.58334491 -.00016876  00000-0 -10445-2 0  9993,2 52347  53.2133 239.6058 0001888  49.5750   5.1386 15.08845214  1303,6917.864000000001,95.437,541.036,538.423,0.0
52347.0,STARLINK-3826,PAYLOAD,2022-08-25 22:00:00,15.08816145,0.0001736,53.2134,238.1079,57.0117,9.3027,0.002637,0.00041902,0.0,0 STARLINK-3826,1 52347U 22045S   22237.91667824  .00041902  00000-0  26370-2 0  9999,2 52347  53.2134 238.1079 0001736  57.0117   9.3027 15.08816145 20764,6917.953,95.439,541.019,538.617,0.0
52347.0,STARLINK-3826,PAYLOAD,2022-08-26 14:00:01,15.08850697,0.0001909999999999,53.2129,235.1163,51.4665,38.0868,-0.0013262,-0.00021339,0.0,0 STARLINK-3826,1 52347U 22045S   22238.58335648 -.00021339  00000-0 -13262-2 0  9999,2 52347  53.2129 235.1163 0001910  51.4665  38.0868 15.08850697 20862,6917.848000000001,95.437,541.034,538.391,0.0
52347.0,STARLINK-3826,PAYLOAD,2022-08-26 22:00:00,15.08824115,0.0001794,53.213,233.6184,58.7435,42.3511,0.0023081,0.00036621,0.0,0 STARLINK-3826,1 52347U 22045S   22238.91667824  .00036621  00000-0  23081-2 0  9998,2 52347  53.2130 233.6184 0001794  58.7435  42.3511 15.08824115  1302,6917.929,95.439,541.035,538.553,0.0
52347.0,STARLINK-3826,PAYLOAD,2022-08-27 14:00:01,15.0885749,0.0001958,53.2134,230.6267,53.048,71.2331,-0.0015574999999999,-0.00025003,0.0,0 STARLINK-3826,1 52347U 22045S   22239.58334491 -.00025003  00000-0 -15575-2 0  9996,2 52347  53.2134 230.6267 0001958  53.0480  71.2331 15.08857490  1308,6917.8269999999975,95.436,541.0459999999998,538.337,0.0
52347.0,STARLINK-3826,PAYLOAD,2022-08-27 22:00:00,15.08928946,0.0001986999999999,53.2164,229.1292,55.1835,80.7258,-0.0089417,-0.00140184,0.0,0 STARLINK-3826,1 52347U 22045S   22239.91667824 -.00140184  00000-0 -89417-2 0  9996,2 52347  53.2164 229.1292 0001987  55.1835  80.7258 15.08928946 21064,6917.609,95.432,540.8480000000002,538.099,0.0
52347.0,STARLINK-3826,PAYLOAD,2022-08-28 14:00:01,15.08871959,0.0002008,53.2149,226.137,54.1322,104.9693,-0.0015332,-0.00024628,0.0,0 STARLINK-3826,1 52347U 22045S   22240.58334491 -.00024628  00000-0 -15332-2 0  9991,2 52347  53.2149 226.1370 0002008  54.1322 104.9693 15.08871959 21160,6917.783,95.436,541.0369999999998,538.259,0.0
52347.0,STARLINK-3826,PAYLOAD,2022-08-28 22:00:00,15.08858782,0.0001924,53.2152,224.6393,59.8015,110.9171,-0.00094335,-0.00015278,0.0,0 STARLINK-3826,1 52347U 22045S   22240.91667824 -.00015278  00000-0 -94335-3 0  9999,2 52347  53.2152 224.6393 0001924  59.8015 110.9171 15.08858782  1300,6917.823,95.436,541.019,538.357,0.0
52347.0,STARLINK-3826,PAYLOAD,2022-08-29 14:00:01,15.08848785,0.0001943,53.2155,221.6475,51.6142,142.3015,-0.004027,-0.00063827,0.0,0 STARLINK-3826,1 52347U 22045S   22241.58334491 -.00063827  00000-0 -40270-2 0  9995,2 52347  53.2155 221.6475 0001943  51.6142 142.3015 15.08848785  1301,6917.854,95.437,541.063,538.374,0.0
52347.0,STARLINK-3826,PAYLOAD,2022-08-29 16:00:00,15.08829291,0.0001894,53.2158,221.2729,52.7548,234.0627,-0.0021638,-0.00034551,0.0,0 STARLINK-3826,1 52347U 22045S   22241.66667824 -.00034551  00000-0 -21638-2 0  9992,2 52347  53.2158 221.2729 0001894  52.7548 234.0627 15.08829291 21322,6917.913000000001,95.438,541.0880000000002,538.4680000000002,0.0
52347.0,STARLINK-3826,PAYLOAD,2022-08-29 22:00:00,15.08807203,0.0001867,53.2159,220.15,57.129,148.3656,0.0016794,0.00026517,0.0,0 STARLINK-3826,1 52347U 22045S   22241.91667824  .00026517  00000-0  16794-2 0  9998,2 52347  53.2159 220.1500 0001867  57.1290 148.3656 15.08807203  1305,6917.981,95.44,541.137,538.554,0.0
52347.0,STARLINK-3826,PAYLOAD,2022-08-30 06:00:00,15.08814444,0.0002061,53.2161,218.6554,51.8913,165.1713,0.00017279,2.461e-05,0.0,0 STARLINK-3826,1 52347U 22045S   22242.25001157  .00002461  00000-0  17279-3 0  9999,2 52347  53.2161 218.6554 0002061  51.8913 165.1713 15.08814444 21419,6917.959,95.439,541.249,538.398,0.0
52347.0,STARLINK-3826,PAYLOAD,2022-08-30 14:00:01,15.08839857,0.0002002,53.2163,217.1584,52.1516,176.4711,-0.0020505,-0.00032774,0.0,0 STARLINK-3826,1 52347U 22045S   22242.58334491 -.00032774  00000-0 -20505-2 0  9992,2 52347  53.2163 217.1584 0002002  52.1516 176.4711 15.08839857  1300,6917.880999999999,95.438,541.131,538.361,0.0
52347.0,STARLINK-3826,PAYLOAD,2022-08-30 22:00:00,15.08821481,0.0001955999999999,53.2167,215.6611,58.2356,181.9659,0.0014824999999999,0.00023373,0.0,0 STARLINK-3826,1 52347U 22045S   22242.91667824  .00023373  00000-0  14825-2 0  9999,2 52347  53.2167 215.6611 0001956  58.2356 181.9659 15.08821481  1300,6917.937,95.439,541.155,538.4490000000002,0.0
52347.0,STARLINK-3826,PAYLOAD,2022-08-31 14:00:01,15.08853349,0.0002049,53.2168,212.6693,53.7862,209.5804,-0.0021584,-0.00034488,0.0,0 STARLINK-3826,1 52347U 22045S   22243.58334491 -.00034488  00000-0 -21584-2 0  9995,2 52347  53.2168 212.6693 0002049  53.7862 209.5804 15.08853349 21617,6917.84,95.437,541.122,538.2869999999998,0.0
